H1 CPF  1  SGF 2022  1 28  2  5281 larets    
H2  0304206 5557    27944 2022  1 27  0  0  0 2022  2  1 23 57  0   180 1 1  0 0 0
H9
10 0 59607  66960.00000  0   1555707.300  -5554450.916  -4096639.289
10 0 59607  67140.00000  0   1032647.018  -4794071.737  -5098883.583
10 0 59607  67320.00000  0    494705.012  -3846598.885  -5915610.978
10 0 59607  67500.00000  0    -34210.522  -2746291.226  -6517275.077
10 0 59607  67680.00000  0   -531525.936  -1533442.015  -6882109.941
10 0 59607  67860.00000  0   -976934.237   -252904.892  -6996863.969
10 0 59607  68040.00000  0  -1353200.583   1047539.861  -6857249.765
10 0 59607  68220.00000  0  -1646818.012   2318928.221  -6468103.709
10 0 59607  68400.00000  0  -1848493.026   3512918.490  -5843256.616
10 0 59607  68580.00000  0  -1953447.964   4583615.776  -5005110.954
10 0 59607  68760.00000  0  -1961528.007   5489356.977  -3983915.937
10 0 59607  68940.00000  0  -1877104.708   6194386.233  -2816741.486
10 0 59607  69120.00000  0  -1708772.720   6670341.768  -1546174.245
10 0 59607  69300.00000  0  -1468851.358   6897483.092   -218770.627
10 0 59607  69480.00000  0  -1172710.344   6865585.730   1116678.628
10 0 59607  69660.00000  0   -837950.184   6574446.320   2411008.392
10 0 59607  69840.00000  0   -483481.148   6033944.086   3616568.036
10 0 59607  70020.00000  0   -128554.101   5263671.442   4689033.724
10 0 59607  70200.00000  0    208203.351   4292160.135   5589079.727
10 0 59607  70380.00000  0    509700.257   3155736.337   6283822.930
10 0 59607  70560.00000  0    761194.035   1897088.443   6747997.107
10 0 59607  70740.00000  0    950966.138    563604.862   6964828.086
10 0 59607  70920.00000  0   1070837.174   -794442.715   6926591.127
10 0 59607  71100.00000  0   1116503.482  -2125802.773   6634852.569
10 0 59607  71280.00000  0   1087685.011  -3380179.846   6100393.991
10 0 59607  71460.00000  0    988080.130  -4510137.923   5342816.988
10 0 59607  71640.00000  0    825132.901  -5472899.882   4389840.619
10 0 59607  71820.00000  0    609625.404  -6231990.245   3276316.922
10 0 59607  72000.00000  0    355106.876  -6758659.812   2042974.373
10 0 59607  72180.00000  0     77183.711  -7033016.976    734929.206
10 0 59607  72360.00000  0   -207295.351  -7044816.527   -599981.129
10 0 59607  72540.00000  0   -481118.378  -6793854.783  -1912984.619
10 0 59607  72720.00000  0   -727603.678  -6289945.662  -3156189.039
10 0 59607  72900.00000  0   -931463.199  -5552495.432  -4284345.975
10 0 59607  73080.00000  0  -1079594.190  -4609697.188  -5256495.359
10 0 59607  73260.00000  0  -1161759.076  -3497393.676  -6037420.750
10 0 59607  73440.00000  0  -1171123.939  -2257673.519  -6598873.492
10 0 59607  73620.00000  0  -1104634.767   -937261.664  -6920535.739
10 0 59607  73800.00000  0   -963219.735    414229.986  -6990703.732
10 0 59607  73980.00000  0   -751809.769   1746132.844  -6806685.778
10 0 59607  74160.00000  0   -479176.090   3008578.916  -6374912.692
10 0 59607  74340.00000  0   -157588.970   4154339.746  -5710759.693
10 0 59607  74520.00000  0    197697.660   5140596.573  -4838069.324
10 0 59607  74700.00000  0    569118.955   5930578.935  -3788373.040
10 0 59607  74880.00000  0    937606.522   6495008.858  -2599816.068
10 0 59607  75060.00000  0   1283499.171   6813278.339  -1315806.655
10 0 59607  75240.00000  0   1587515.183   6874296.132     16572.960
10 0 59607  75420.00000  0   1831736.315   6676943.435   1348335.458
10 0 59607  75600.00000  0   2000546.247   6230104.566   2630453.353
10 0 59607  75780.00000  0   2081474.114   5552272.637   3815732.108
10 0 59607  75960.00000  0   2065896.980   4670749.015   4860608.639
10 0 59607  76140.00000  0   1949561.218   3620473.451   5726791.241
10 0 59607  76320.00000  0   1732897.734   2442557.138   6382658.411
10 0 59607  76500.00000  0   1421123.831   1182611.001   6804381.871
10 0 59607  76680.00000  0   1024127.858   -111066.752   6976746.587
10 0 59607  76860.00000  0    556144.829  -1389359.854   6893651.544
10 0 59607  77040.00000  0     35234.740  -2604201.949   6558297.646
10 0 59607  77220.00000  0   -517420.575  -3710384.433   5983051.900
10 0 59607  77400.00000  0  -1078371.837  -4667237.121   5188992.322
10 0 59607  77580.00000  0  -1622878.729  -5440130.102   4205163.065
10 0 59607  77760.00000  0  -2125982.782  -6001761.196   3067544.253
10 0 59607  77940.00000  0  -2563627.398  -6333160.044   1817747.632
10 0 59607  78120.00000  0  -2913771.742  -6424358.108    501489.915
10 0 59607  78300.00000  0  -3157441.712  -6274696.268   -833100.609
10 0 59607  78480.00000  0  -3279665.992  -5892751.540  -2137275.549
10 0 59607  78660.00000  0  -3270250.086  -5295884.659  -3363478.503
10 0 59607  78840.00000  0  -3124348.074  -4509432.763  -4467097.333
10 0 59607  79020.00000  0  -2842803.777  -3565595.959  -5408078.119
10 0 59607  79200.00000  0  -2432253.099  -2502084.826  -6152342.457
10 0 59607  79380.00000  0  -1904988.259  -1360593.808  -6672969.137
10 0 59607  79560.00000  0  -1278588.894   -185165.720  -6951109.649
10 0 59607  79740.00000  0   -575340.537    979486.675  -6976618.703
10 0 59607  79920.00000  0    178540.604   2089644.963  -6748402.318
10 0 59607  80100.00000  0    953856.726   3104193.276  -6274481.036
10 0 59607  80280.00000  0   1719532.211   3986130.413  -5571761.210
10 0 59607  80460.00000  0   2443838.454   4703934.772  -4665502.093
10 0 59607  80640.00000  0   3095699.187   5232736.340  -3588484.790
10 0 59607  80820.00000  0   3646026.928   5555246.449  -2379886.337
10 0 59607  81000.00000  0   4069032.941   5662394.580  -1083883.538
10 0 59607  81180.00000  0   4343441.680   5553630.721    251972.749
10 0 59607  81360.00000  0   4453540.350   5236866.531   1578548.943
10 0 59607  81540.00000  0   4390002.248   4728050.155   2847000.488
10 0 59607  81720.00000  0   4150440.565   4050400.262   4010641.799
10 0 59607  81900.00000  0   3739654.403   3233329.889   5026722.461
10 0 59607  82080.00000  0   3169563.569   2311130.593   5858026.047
10 0 59607  82260.00000  0   2458831.953   1321485.573   6474228.061
10 0 59607  82440.00000  0   1632215.162    303891.519   6852964.173
10 0 59607  82620.00000  0    719661.461   -701935.827   6980593.244
10 0 59607  82800.00000  0   -244797.717  -1657615.167   6852647.920
10 0 59607  82980.00000  0  -1224329.518  -2527563.730   6473961.007
10 0 59607  83160.00000  0  -2180706.177  -3280316.967   5858468.966
10 0 59607  83340.00000  0  -3075787.597  -3889664.346   5028713.617
10 0 59607  83520.00000  0  -3873048.275  -4335574.247   4015047.366
10 0 59607  83700.00000  0  -4539081.068  -4604865.738   2854543.106
10 0 59607  83880.00000  0  -5045006.855  -4691601.178   1589650.103
10 0 59607  84060.00000  0  -5367733.747  -4597182.937    266636.441
10 0 59607  84240.00000  0  -5491000.492  -4330142.695  -1066126.623
10 0 59607  84420.00000  0  -5406148.974  -3905633.506  -2359967.708
10 0 59607  84600.00000  0  -5112580.270  -3344647.610  -3567725.379
10 0 59607  84780.00000  0  -4617875.921  -2673007.632  -4645477.714
10 0 59607  84960.00000  0  -3937589.316  -1920189.076  -5554125.300
10 0 59607  85140.00000  0  -3094721.781  -1118032.790  -6260771.778
10 0 59607  85320.00000  0  -2118914.128   -299407.740  -6739859.585
10 0 59607  85500.00000  0  -1045389.830    503117.205  -6974034.254
10 0 59607  85680.00000  0     86305.025   1258540.690  -6954724.577
10 0 59607  85860.00000  0   1233724.048   1938599.744  -6682441.997
10 0 59607  86040.00000  0   2353075.399   2518812.302  -6166796.410
10 0 59607  86220.00000  0   3400869.585   2979362.434  -5426211.266
10 0 59608      0.00000  0   4335602.336   3305795.313  -4487337.215
10 0 59608    180.00000  0   5119422.212   3489499.820  -3384170.036
10 0 59608    360.00000  0   5719713.607   3527952.153  -2156874.250
10 0 59608    540.00000  0   6110516.502   3424704.849   -850343.138
10 0 59608    720.00000  0   6273708.387   3189110.308    487460.761
10 0 59608    900.00000  0   6199876.613   2835785.161   1807315.982
10 0 59608   1080.00000  0   5888825.845   2383842.411   3060621.370
10 0 59608   1260.00000  0   5349689.423   1855932.573   4201257.380
10 0 59608   1440.00000  0   4600634.500   1277142.863   5187336.958
10 0 59608   1620.00000  0   3668188.276    673819.067   5982763.170
10 0 59608   1800.00000  0   2586223.834     72371.432   6558541.602
10 0 59608   1980.00000  0   1394662.033   -501873.806   6893795.452
10 0 59608   2160.00000  0    137956.050  -1025731.017   6976476.920
10 0 59608   2340.00000  0  -1136593.185  -1479083.558   6803757.939
10 0 59608   2520.00000  0  -2380623.174  -1845649.666   6382095.443
10 0 59608   2700.00000  0  -3546536.514  -2113559.464   5726983.963
10 0 59608   2880.00000  0  -4589323.819  -2275733.072   4862410.493
10 0 59608   3060.00000  0  -5468321.435  -2330049.790   3820000.143
10 0 59608   3240.00000  0  -6148823.672  -2279295.060   2637877.905
10 0 59608   3420.00000  0  -6603487.485  -2130891.110   1359287.137
10 0 59608   3600.00000  0  -6813468.688  -1896425.711     30998.847
10 0 59608   3780.00000  0  -6769219.447  -1590994.344  -1298428.163
10 0 59608   3960.00000  0  -6470906.459  -1232391.386  -2580457.329
10 0 59608   4140.00000  0  -5928428.785   -840195.811  -3768372.865
10 0 59608   4320.00000  0  -5161043.082   -434798.945  -4818990.220
10 0 59608   4500.00000  0  -4196620.829    -36420.775  -5694209.681
10 0 59608   4680.00000  0  -3070579.685    335833.774  -6362356.470
10 0 59608   4860.00000  0  -1824546.254    664836.003  -6799266.020
10 0 59608   5040.00000  0   -504812.907    936176.554  -6989098.415
10 0 59608   5220.00000  0    839357.953   1138767.502  -6924870.373
10 0 59608   5400.00000  0   2157529.039   1265283.881  -6608706.989
10 0 59608   5580.00000  0   3399947.115   1312432.869  -6051805.121
10 0 59608   5760.00000  0   4519404.588   1281039.629  -5274091.692
10 0 59608   5940.00000  0   5473044.253   1175944.778  -4303585.855
99
